{
    "links": {
        "self": "http://www.neowsapp.com/rest/v1/neo/3797459?api_key=iIulBulltgU6a56xZRHN4H3l9WmuAYTsLGpBGhQ2"
    },
    "id": "3797459",
    "neo_reference_id": "3797459",
    "name": "(2018 AQ2)",
    "designation": "2018 AQ2",
    "nasa_jpl_url": "http://ssd.jpl.nasa.gov/sbdb.cgi?sstr=3797459",
    "absolute_magnitude_h": 22.1,
    "estimated_diameter": {
        "kilometers": {
            "estimated_diameter_min": 0.1010543415,
            "estimated_diameter_max": 0.2259643771
        },
        "meters": {
            "estimated_diameter_min": 101.054341542,
            "estimated_diameter_max": 225.9643771094
        },
        "miles": {
            "estimated_diameter_min": 0.0627922373,
            "estimated_diameter_max": 0.140407711
        },
        "feet": {
            "estimated_diameter_min": 331.5431259047,
            "estimated_diameter_max": 741.3529669956
        }
    },
    "is_potentially_hazardous_asteroid": false,
    "close_approach_data": [
        {
            "close_approach_date": "2018-02-02",
            "close_approach_date_full": "2018-Feb-02 06:54",
            "epoch_date_close_approach": 1517554440000,
            "relative_velocity": {
                "kilometers_per_second": "17.3577537574",
                "kilometers_per_hour": "62487.9135266904",
                "miles_per_hour": "38827.5593799594"
            },
            "miss_distance": {
                "astronomical": "0.0344103359",
                "lunar": "13.3856206651",
                "kilometers": "5147712.956624533",
                "miles": "3198640.5083152354"
            },
            "orbiting_body": "Earth"
        },
        {
            "close_approach_date": "2023-03-14",
            "close_approach_date_full": "2023-Mar-14 08:00",
            "epoch_date_close_approach": 1678780800000,
            "relative_velocity": {
                "kilometers_per_second": "4.8373017586",
                "kilometers_per_hour": "17414.2863311398",
                "miles_per_hour": "10820.5603039241"
            },
            "miss_distance": {
                "astronomical": "1.2744662475",
                "lunar": "495.7673702775",
                "kilometers": "190657436.012892825",
                "miles": "118469037.256157985"
            },
            "orbiting_body": "Juptr"
        },
        {
            "close_approach_date": "2058-01-19",
            "close_approach_date_full": "2058-Jan-19 18:28",
            "epoch_date_close_approach": 2778690480000,
            "relative_velocity": {
                "kilometers_per_second": "18.2465336268",
                "kilometers_per_hour": "65687.5210565981",
                "miles_per_hour": "40815.6710698623"
            },
            "miss_distance": {
                "astronomical": "0.0472066787",
                "lunar": "18.3633980143",
                "kilometers": "7062018.583294369",
                "miles": "4388134.8671415322"
            },
            "orbiting_body": "Mars"
        },
        {
            "close_approach_date": "2059-04-09",
            "close_approach_date_full": "2059-Apr-09 01:43",
            "epoch_date_close_approach": 2817078180000,
            "relative_velocity": {
                "kilometers_per_second": "7.3124243085",
                "kilometers_per_hour": "26324.7275107417",
                "miles_per_hour": "16357.1619357717"
            },
            "miss_distance": {
                "astronomical": "1.9294518951",
                "lunar": "750.5567871939",
                "kilometers": "288641893.774423437",
                "miles": "179353756.0472479506"
            },
            "orbiting_body": "Juptr"
        }
    ],
    "orbital_data": {
        "orbit_id": "15",
        "orbit_determination_date": "2020-09-11 07:38:58",
        "first_observation_date": "2018-01-11",
        "last_observation_date": "2018-02-02",
        "data_arc_in_days": 22,
        "observations_used": 134,
        "orbit_uncertainty": "7",
        "minimum_orbit_intersection": ".0223978",
        "jupiter_tisserand_invariant": "3.321",
        "epoch_osculation": "2459000.5",
        "eccentricity": ".6630876737256166",
        "semi_major_axis": "2.220277661305371",
        "inclination": "1.82483693822192",
        "ascending_node_longitude": "47.52156277259503",
        "orbital_period": "1208.396228121967",
        "perihelion_distance": ".7480389118454401",
        "perihelion_argument": "153.5435004905035",
        "aphelion_distance": "3.692516410765302",
        "perihelion_time": "2459401.559673725222",
        "mean_anomaly": "240.5180956535498",
        "mean_motion": ".2979155277234647",
        "equinox": "J2000",
        "orbit_class": {
            "orbit_class_type": "APO",
            "orbit_class_description": "Near-Earth asteroid orbits which cross the Earth’s orbit similar to that of 1862 Apollo",
            "orbit_class_range": "a (semi-major axis) > 1.0 AU; q (perihelion) < 1.017 AU"
        }
    },
    "is_sentry_object": false
}